0 SL-16 DEB
1 22610U 93016U   13281.86259490  .00000003  00000-0  45906-4 0  9438
2 22610 070.9999 107.3975 0214875 342.8025 124.2667 13.67587410 25242
0 SL-16 DEB
1 22610U 93016U   13286.98089947 -.00000028  00000-0  14978-4 0  9459
2 22610 071.0004 097.4604 0215080 335.6425 123.2654 13.67588187 25946
0 SL-16 DEB
1 22610U 93016U   13289.53157873 -.00000042  00000-0  55753-6 0  9462
2 22610 071.0010 092.5085 0215189 332.0633 081.0644 13.67588391 26290
0 SL-16 DEB
1 22610U 93016U   13291.80097373 -.00000013  00000-0  30027-4 0  9477
2 22610 071.0016 088.1028 0215288 328.9061 093.9880 13.67588230 26604
0 SL-16 DEB
1 22610U 93016U   13293.86732913  .00000015  00000-0  58925-4 0  9480
2 22610 071.0019 084.0916 0215370 326.0211 187.2952 13.67588118 26888
